MEAN_MOTION;ECCENTRICITY;INCLINATION;RA_OF_ASC_NODE;ARG_OF_PERICENTER;MEAN_ANOMALY;BSTAR;MEAN_MOTION_DOT;MEAN_MOTION_DDOT;TYPE
1.00265207;9.82E-5;13.3138;23.8035;276.1201;296.7476;0;2.2E-7;0;Weather
1.00265313;9.79E-5;13.3142;23.7977;279.9048;165.6046;0;2.0E-7;0;Weather
1.00265394;9.63E-5;13.3145;23.7945;282.378;298.2116;0;1.9E-7;0;Weather
1.00265467;9.54E-5;13.3148;23.791;284.6469;77.2894;0;1.8E-7;0;Weather
1.00265618;9.39E-5;13.3152;23.7857;288.6571;294.3841;0;1.7E-7;0;Weather
1.00265712;9.23E-5;13.3155;23.7822;291.1608;73.5751;0;1.6E-7;0;Weather
1.00265891;9.02E-5;13.316;23.7768;295.3291;292.4047;0;1.5E-7;0;Weather
1.00266007;8.84E-5;13.3162;23.7735;297.8185;69.6966;0;1.4E-7;0;Weather
1.00266351;8.41E-5;13.317;23.7647;304.5025;65.8005;0;1.2E-7;0;Weather
1.0026674;7.89E-5;13.3177;23.756;311.6724;61.3886;0;1.1E-7;0;Weather
1.00266972;7.61E-5;13.3181;23.7509;316.4518;263.5538;0;1.1E-7;0;Weather
1.00267371;7.11E-5;13.3187;23.7429;323.8262;225.588;0;1.1E-7;0;Weather
1.0026783;6.5E-5;13.3194;23.7339;331.6779;220.9683;0;1.1E-7;0;Weather
1.00267854;6.46E-5;13.3194;23.7334;331.8746;239.8646;0;1.1E-7;0;Weather
1.00268271;5.89E-5;13.3201;23.7253;338.9634;197.9975;0;1.2E-7;0;Weather
1.0026873;5.23E-5;13.3208;23.7161;346.4618;193.2912;0;1.3E-7;0;Weather
1.00268838;5.1E-5;13.3209;23.7138;347.3549;280.8416;0;1.3E-7;0;Weather
1.00269173;4.59E-5;13.3215;23.7069;353.9106;188.6619;0;1.4E-7;0;Weather
1.00269473;4.18E-5;13.3219;23.7005;356.9566;77.6173;0;1.5E-7;0;Weather
1.00269672;3.82E-5;13.3223;23.6959;1.3454;253.3551;0;1.6E-7;0;Weather
1.00270041;3.17E-5;13.3229;23.6871;6.8798;230.5457;0;1.7E-7;0;Weather
1.00270526;2.29E-5;13.3238;23.6743;8.6394;3.6829;0;2.0E-7;0;Weather
1.00270923;1.46E-5;13.3245;23.6627;7.4176;90.2432;0;2.2E-7;0;Weather
1.00271029;1.16E-5;13.3248;23.6592;6.0921;222.8022;0;2.3E-7;0;Weather
1.00271281;7.3E-6;13.3253;23.6508;342.8562;211.7644;0;2.5E-7;0;Weather
1.00271462;6.2E-6;13.3258;23.6442;315.4261;128.0938;0;2.6E-7;0;Weather
1.00271554;7.4E-6;13.326;23.6407;288.1096;292.2646;0;2.7E-7;0;Weather
1.00271757;1.14E-5;13.3266;23.6324;270.9369;269.4853;0;2.8E-7;0;Weather
1.00271969;1.74E-5;13.3272;23.623;265.4227;280.003;0;3.0E-7;0;Weather
1.00272016;1.88E-5;13.3274;23.6206;264.4562;10.5572;0;3.0E-7;0;Weather
1.00272199;2.44E-5;13.3281;23.6113;267.0446;12.8804;0;3.1E-7;0;Weather
1.00272322;2.84E-5;13.3285;23.6046;270.0521;274.3509;0;3.1E-7;0;Weather
1.00272507;3.54E-5;13.3293;23.5934;277.0537;351.528;0;3.0E-7;0;Weather
1.00272718;4.32E-5;13.3304;23.5798;284.9107;176.2162;0;2.9E-7;0;Weather
1.00272858;4.86E-5;13.331;23.5709;292.3507;173.9283;0;2.7E-7;0;Weather
1.00272916;4.96E-5;13.3313;23.5677;296.9152;300.777;0;2.6E-7;0;Weather
1.00273045;5.33E-5;13.3318;23.5602;303.1273;247.5019;0;2.4E-7;0;Weather
1.00273084;5.34E-5;13.332;23.5582;306.3313;323.1372;0;2.4E-7;0;Weather
1.00273252;5.71E-5;13.3326;23.55;314.0699;295.9142;0;2.1E-7;0;Weather
1.00273358;5.96E-5;13.3329;23.545;318.5671;140.3596;0;2.0E-7;0;Weather
1.00273475;5.99E-5;13.3333;23.5406;324.2815;315.4707;0;1.9E-7;0;Weather
1.00273591;6.3E-5;13.3336;23.5362;327.8944;137.614;0;1.8E-7;0;Weather
1.00273726;6.29E-5;13.3339;23.5319;333.2333;309.8454;0;1.7E-7;0;Weather
1.00273842;6.53E-5;13.3342;23.528;336.7761;107.4576;0;1.6E-7;0;Weather
1.00274021;6.56E-5;13.3346;23.523;342.4638;308.2086;0;1.5E-7;0;Weather
1.0027416;6.81E-5;13.3349;23.5192;346.1952;106.1927;0;1.4E-7;0;Weather
1.00274618;7.12E-5;13.3358;23.5082;357.6844;194.8047;0;1.3E-7;0;Weather
1.00275021;7.34E-5;13.3364;23.4994;7.0603;188.2523;0;1.3E-7;0;Weather
1.00275124;7.26E-5;13.3366;23.4973;8.5992;274.5739;0;1.3E-7;0;Weather
1.00275451;7.51E-5;13.3371;23.4907;15.348;181.2731;0;1.3E-7;0;Weather
1.00275563;7.41E-5;13.3373;23.4883;17.1859;272.923;0;1.3E-7;0;Weather
1.00275956;7.58E-5;13.3378;23.4806;24.8169;222.1829;0;1.3E-7;0;Weather
1.00276469;7.59E-5;13.3386;23.4704;33.1932;267.549;0;1.4E-7;0;Weather
1.00276888;7.61E-5;13.3392;23.4619;40.4275;241.2212;0;1.6E-7;0;Weather
1.002772;7.6E-5;13.3397;23.4554;46.4401;137.0926;0;1.7E-7;0;Weather
1.00277212;7.59E-5;13.3397;23.4551;46.5966;148.0389;0;1.7E-7;0;Weather
1.00277611;7.43E-5;13.3403;23.4463;53.2125;133.1353;0;1.9E-7;0;Weather
1.00277998;7.18E-5;13.3409;23.4371;59.3333;129.8365;0;2.1E-7;0;Weather
1.00278333;6.88E-5;13.3415;23.4285;64.4031;101.7341;0;2.3E-7;0;Weather
1.00278441;6.8E-5;13.3417;23.4256;66.0616;216.1899;0;2.3E-7;0;Weather
1.00278668;6.34E-5;13.3421;23.4192;68.3757;100.5807;0;2.5E-7;0;Weather
1.00278768;6.27E-5;13.3422;23.4163;70.2996;216.1031;0;2.6E-7;0;Weather
1.00279065;5.79E-5;13.3428;23.4069;75.4022;217.0145;0;2.8E-7;0;Weather
1.00279065;5.79E-5;13.3428;23.4069;75.4022;217.0145;0;2.8E-7;0;Weather
1.00279317;5.25E-5;13.3434;23.3981;79.2665;194.6712;0;3.0E-7;0;Weather
1.00279562;4.64E-5;13.344;23.3886;82.63;198.3822;0;3.2E-7;0;Weather
1.0027978;4.07E-5;13.3446;23.3793;85.3899;201.4198;0;3.3E-7;0;Weather
1.0027992;3.65E-5;13.3451;23.3728;85.5979;97.4736;0;3.4E-7;0;Weather
1.00279985;3.39E-5;13.3453;23.3695;86.1486;228.4346;0;3.5E-7;0;Weather
1.00280101;3.0E-5;13.3457;23.3637;84.1334;101.7889;0;3.5E-7;0;Weather
1.00280301;2.34E-5;13.3464;23.3524;76.135;202.351;0;3.5E-7;0;Weather
1.00280406;2.08E-5;13.3469;23.3463;69.5018;96.2048;0;3.5E-7;0;Weather
1.0028046;2.01E-5;13.3471;23.3428;60.8163;247.3584;0;3.5E-7;0;Weather
1.00280553;1.94E-5;13.3475;23.3374;51.2632;117.2912;0;3.4E-7;0;Weather
1.00280591;2.07E-5;13.3476;23.3351;44.9759;220.2003;0;3.4E-7;0;Weather
1.00280744;2.45E-5;13.3482;23.3262;29.6035;242.1868;0;3.2E-7;0;Weather
1.00280927;3.17E-5;13.3489;23.3163;19.9856;304.6192;0;3.0E-7;0;Weather
1.00281096;3.86E-5;13.3495;23.3087;19.5091;263.5376;0;2.8E-7;0;Weather
1.0028131;4.71E-5;13.3501;23.2999;20.6174;268.1516;0;2.6E-7;0;Weather
1.00281559;5.58E-5;13.3507;23.2912;23.5239;269.7952;0;2.3E-7;0;Weather
1.00281746;6.2E-5;13.3511;23.2852;25.435;160.1243;0;2.2E-7;0;Weather
1.00281865;6.48E-5;13.3513;23.2818;27.9009;293.6409;0;2.1E-7;0;Weather
1.00282215;7.36E-5;13.352;23.2725;32.3679;314.0571;0;2.0E-7;0;Weather
1.002824;7.89E-5;13.3523;23.2679;34.1749;142.0411;0;2.0E-7;0;Weather
1.00282795;8.67E-5;13.3529;23.2589;39.5402;147.2335;0;1.9E-7;0;Weather
1.00282838;8.71E-5;13.353;23.258;40.4916;186.2703;0;1.9E-7;0;Weather
1.00283191;9.35E-5;13.3535;23.2506;44.9116;126.1308;0;1.9E-7;0;Weather
1.00283232;9.38E-5;13.3535;23.2497;45.4048;161.9569;0;1.9E-7;0;Weather
1.00283643;9.96E-5;13.3541;23.2413;50.2143;136.8692;0;1.9E-7;0;Weather
1.00284076;0.0001044;13.3547;23.2327;55.2434;121.5185;0;2.0E-7;0;Weather
1.00284241;0.0001044;13.3549;23.2293;56.9043;254.507;0;2.0E-7;0;Weather
1.00284741;0.0001082;13.3556;23.2192;62.598;294.7912;0;2.2E-7;0;Weather
1.00284968;0.0001109;13.3559;23.2146;65.6412;116.7982;0;2.3E-7;0;Weather
1.00285357;0.000112;13.3564;23.2064;69.8738;77.6165;0;2.4E-7;0;Weather
1.00285427;0.0001124;13.3565;23.2048;70.7965;141.3721;0;2.4E-7;0;Weather
1.00285806;0.0001124;13.3571;23.1963;75.1285;113.02;0;2.6E-7;0;Weather
1.00285806;0.0001124;13.3571;23.1963;75.1285;113.02;0;2.6E-7;0;Weather
1.00261418;0.00013;13.3591;23.1882;182.8594;7.9816;0;2.4E-7;0;Weather
1.00261867;5.22E-5;13.3584;23.179;257.2593;270.4941;0;2.5E-7;0;Weather
1.00262098;5.89E-5;13.3587;23.1707;268.1124;262.3772;0;2.7E-7;0;Weather
1.00262118;5.89E-5;13.3588;23.1701;267.0967;285.715;0;2.7E-7;0;Weather
1.00262407;6.33E-5;13.3593;23.1612;262.3593;270.8939;0;2.9E-7;0;Weather
1.00262679;6.91E-5;13.3598;23.1519;260.7465;275.2966;0;3.0E-7;0;Weather
1.00262934;7.63E-5;13.3603;23.142;258.2802;299.6641;0;3.2E-7;0;Weather
1.00262934;7.63E-5;13.3603;23.142;258.2802;299.6641;0;3.2E-7;0;Weather
1.00263145;8.3E-5;13.3609;23.1332;257.7348;283.8193;0;3.3E-7;0;Weather
1.00263223;8.53E-5;13.3611;23.1286;257.3598;107.3601;0;3.3E-7;0;Weather
1.0026332;8.82E-5;13.3614;23.1241;257.5873;286.697;0;3.4E-7;0;Weather
1.00263332;8.88E-5;13.3615;23.1234;257.6405;314.2571;0;3.4E-7;0;Weather
1.00263645;0.0001002;13.3625;23.1067;260.505;264.8413;0;3.3E-7;0;Weather
1.00263654;0.0001002;13.3626;23.1061;260.5289;289.3067;0;3.3E-7;0;Weather
1.0026379;0.0001059;13.3631;23.0978;263.8491;265.8039;0;3.2E-7;0;Weather
1.00263801;0.0001058;13.3631;23.0973;263.8931;288.7054;0;3.2E-7;0;Weather
1.00263947;0.0001086;13.3637;23.0883;266.7353;296.9782;0;3.1E-7;0;Weather
1.00263947;0.0001086;13.3637;23.0883;266.7353;296.9782;0;3.1E-7;0;Weather
1.00264099;0.0001114;13.3642;23.0797;270.5144;289.1494;0;2.8E-7;0;Weather
1.0026425;0.0001129;13.3648;23.0715;274.2981;260.7344;0;2.6E-7;0;Weather
1.00264443;0.0001124;13.3653;23.0628;278.3798;259.4267;0;2.3E-7;0;Weather
1.00264529;0.00011;13.3656;23.0593;279.8963;42.7335;0;2.2E-7;0;Weather
1.00264665;0.0001091;13.3659;23.0541;282.1875;258.3981;0;2.1E-7;0;Weather
1.00264781;0.0001058;13.3662;23.05;283.7474;65.9423;0;1.9E-7;0;Weather
1.00264923;0.0001044;13.3665;23.0454;286.1152;257.2161;0;1.8E-7;0;Weather
1.00265065;0.0001008;13.3668;23.0412;287.813;68.4836;0;1.7E-7;0;Weather
1.00265224;9.88E-5;13.3671;23.0366;290.3502;255.7506;0;1.6E-7;0;Weather
1.00265344;9.52E-5;13.3673;23.0335;291.0661;20.9109;0;1.5E-7;0;Weather
1.00265751;8.84E-5;13.3679;23.0232;296.138;74.1235;0;1.3E-7;0;Weather
1.00266338;7.69E-5;13.3688;23.0098;302.5286;251.9016;0;1.2E-7;0;Weather
1.00266338;7.69E-5;13.3688;23.0098;302.5286;251.9016;0;1.2E-7;0;Weather
1.00266755;6.74E-5;13.3693;23.0008;305.3014;248.5333;0;1.2E-7;0;Weather
1.00266954;6.31E-5;13.3696;22.9967;304.7076;54.4771;0;1.1E-7;0;Weather
1.00267162;5.79E-5;13.3699;22.9923;306.9097;227.2268;0;1.2E-7;0;Weather
1.00267381;5.38E-5;13.3702;22.9877;305.5879;49.9326;0;1.2E-7;0;Weather
1.00267771;4.53E-5;13.3707;22.9794;304.9252;17.7864;0;1.2E-7;0;Weather
1.00268031;3.84E-5;13.371;22.9739;303.784;235.9169;0;1.3E-7;0;Weather
1.00268241;3.54E-5;13.3713;22.9693;299.6798;61.4192;0;1.3E-7;0;Weather
1.00268451;2.98E-5;13.3716;22.9647;295.1055;247.39;0;1.4E-7;0;Weather
1.00268872;2.43E-5;13.3721;22.9551;278.3015;282.6762;0;1.5E-7;0;Weather
1.00269046;2.41E-5;13.3723;22.9509;270.7147;94.2188;0;1.6E-7;0;Weather
